Landsat 8
1 39084U 13008A   24154.46805556  .00000102  00000-0  54321-5 0  9994
2 39084  98.2080 135.0000 0001500 200.0000 160.0000 14.57110000123456
